[{"OBJECT_NAME":"KUIPER-00146","OBJECT_ID":"2025-228W","EPOCH":"2026-03-09T23:12:37.486656","MEAN_MOTION":14.76495298,"ECCENTRICITY":0.00011498,"INCLINATION":51.9043,"RA_OF_ASC_NODE":341.7937,"ARG_OF_PERICENTER":114.3264,"MEAN_ANOMALY":245.7817,"EPHEMERIS_TYPE":0,"CLASSIFICATION_TYPE":"U","NORAD_CAT_ID":65967,"ELEMENT_SET_NO":999,"REV_AT_EPOCH":2351,"BSTAR":0.0005122379,"MEAN_MOTION_DOT":3.387e-5,"MEAN_MOTION_DDOT":0},{"OBJECT_NAME":"COSMOS 2251 DEB","OBJECT_ID":"1993-036BRM","EPOCH":"2026-03-08T09:03:45.135936","MEAN_MOTION":14.78210239,"ECCENTRICITY":0.00635586,"INCLINATION":74.0099,"RA_OF_ASC_NODE":38.416,"ARG_OF_PERICENTER":147.7598,"MEAN_ANOMALY":4.6818,"EPHEMERIS_TYPE":0,"CLASSIFICATION_TYPE":"U","NORAD_CAT_ID":38055,"ELEMENT_SET_NO":999,"REV_AT_EPOCH":61947,"BSTAR":0.001215667,"MEAN_MOTION_DOT":9.096e-5,"MEAN_MOTION_DDOT":0}]
